[{"OBJECT_NAME":"EOSSAT-1","OBJECT_ID":"2023-001AW","EPOCH":"2026-03-09T17:40:07.010400","MEAN_MOTION":15.32339828,"ECCENTRICITY":0.00112629,"INCLINATION":97.3357,"RA_OF_ASC_NODE":130.2294,"ARG_OF_PERICENTER":110.3168,"MEAN_ANOMALY":249.9285,"EPHEMERIS_TYPE":0,"CLASSIFICATION_TYPE":"U","NORAD_CAT_ID":55053,"ELEMENT_SET_NO":999,"REV_AT_EPOCH":17668,"BSTAR":0.00024844399,"MEAN_MOTION_DOT":7.695e-5,"MEAN_MOTION_DDOT":0},{"OBJECT_NAME":"STARLINK-31362","OBJECT_ID":"2024-027E","EPOCH":"2026-03-09T22:45:10.128960","MEAN_MOTION":15.30188128,"ECCENTRICITY":9.209e-5,"INCLINATION":53.158,"RA_OF_ASC_NODE":308.7251,"ARG_OF_PERICENTER":112.4905,"MEAN_ANOMALY":247.6193,"EPHEMERIS_TYPE":0,"CLASSIFICATION_TYPE":"U","NORAD_CAT_ID":58935,"ELEMENT_SET_NO":999,"REV_AT_EPOCH":11736,"BSTAR":0.0002488704,"MEAN_MOTION_DOT":7.016e-5,"MEAN_MOTION_DDOT":0}]
